{"generatedAt":"2026-04-19T07:38:58.008437Z","satellites":[{"name":"ZHONGXING-11","tle1":"1 39157U 13020A   26109.01313096  .00000000  00000+0  00000+0 0  9990","tle2":"2 39157   0.0167  74.4137 0001301 336.2534 259.0850  1.00269359 47306"},{"name":"EUTELSAT 7B","tle1":"1 39163U 13022A   26108.85808631  .00000052  00000+0  00000+0 0  9991","tle2":"2 39163   0.0781  27.2590 0005932 346.6120 149.0125  1.00272260 47357"},{"name":"WGS F5 (USA 243)","tle1":"1 39168U 13024A   26108.92560341 -.00000280  00000+0  00000+0 0  9993","tle2":"2 39168   0.0115 221.5089 0000359  58.3684 207.8664  1.00271682 46587"},{"name":"SES-6","tle1":"1 39172U 13026A   26108.92803009 -.00000257  00000+0  00000+0 0  9995","tle2":"2 39172   0.0293 299.7296 0002190  90.0339 110.8678  1.00271322 47132"},{"name":"IRNSS-1A","tle1":"1 39199U 13034A   26108.95530622  .00000078  00000+0  00000+0 0  9994","tle2":"2 39199  35.5966  64.7153 0016975 188.0590 353.2201  1.00270152 46770"},{"name":"MUOS-2","tle1":"1 39206U 13036A   26108.87558414 -.00000008  00000+0  00000+0 0  9999","tle2":"2 39206   4.8784  45.4227 0050599 181.1411 107.6094  1.00269574 46597"},{"name":"ALPHASAT","tle1":"1 39215U 13038A   26108.96688535  .00000138  00000+0  00000+0 0  9992","tle2":"2 39215   2.9909   1.8377 0001943  53.9351 164.2680  1.00272945 43420"},{"name":"INSAT-3D","tle1":"1 39216U 13038B   26108.89041660 -.00000334  00000+0  00000+0 0  9996","tle2":"2 39216   1.7728  83.2524 0001299 254.2963 319.4931  1.00268416 46484"},{"name":"WGS F6 (USA 244)","tle1":"1 39222U 13041A   26108.84884264  .00000000  00000+0  00000+0 0  9996","tle2":"2 39222   0.0117 245.0211 0000430  48.2488  84.0795  1.00269038 45466"},{"name":"ES'HAIL 1","tle1":"1 39233U 13044A   26108.90945122  .00000147  00000+0  00000+0 0  9991","tle2":"2 39233   0.0568 351.5594 0002476  39.3809 168.9781  1.00272358 46035"},{"name":"GSAT-7","tle1":"1 39234U 13044B   26108.97369601 -.00000073  00000+0  00000+0 0  9990","tle2":"2 39234   0.0707  84.0604 0004944 215.6943 331.8469  1.00271025 44662"},{"name":"AMOS-4","tle1":"1 39237U 13045A   26108.94975405  .00000011  00000+0  00000+0 0  9997","tle2":"2 39237   0.0638  93.9607 0003160 285.3054 234.7115  1.00273268 46365"},{"name":"AEHF-3 (USA 246)","tle1":"1 39256U 13050A   26108.91156337  .00000034  00000+0  00000+0 0  9991","tle2":"2 39256   5.1491  67.7286 0089223 188.6119 154.6503  1.00275416 45055"},{"name":"ASTRA 2E","tle1":"1 39285U 13056A   26108.91170140  .00000154  00000+0  00000+0 0  9990","tle2":"2 39285   0.0744  34.2043 0002570 345.0981 184.4329  1.00272650 45827"},{"name":"FM-6","tle1":"1 39360U 13058A   26108.69912465 -.00000012  00000+0  00000+0 0  9999","tle2":"2 39360   0.0100 226.7220 0000489 328.8445 146.5841  1.00275051 45470"},{"name":"RADUGA-1M 3","tle1":"1 39375U 13062A   26108.94613263  .00000159  00000+0  00000+0 0  9993","tle2":"2 39375   5.8096  73.0896 0000669 248.7823 260.8058  1.00270298 45518"},{"name":"SES-8","tle1":"1 39460U 13071A   26108.96072778 -.00000265  00000+0  00000+0 0  9999","tle2":"2 39460   0.0142 262.2763 0002150 142.7505 242.9140  1.00271579 43833"},{"name":"INMARSAT 5-F1","tle1":"1 39476U 13073A   26108.97593992  .00000032  00000+0  00000+0 0  9996","tle2":"2 39476   0.0104 223.8188 0001074 344.0139  53.1561  1.00270320 44985"},{"name":"TKSAT-1 (TUPAC KATARI)","tle1":"1 39481U 13075A   26108.91875672  .00000000  00000+0  00000+0 0  9991","tle2":"2 39481   0.0122 260.0263 0002823 108.6220  81.9292  1.00269075 45005"},{"name":"EXPRESS-AM5","tle1":"1 39487U 13077A   26108.82116963 -.00000275  00000+0  00000+0 0  9995","tle2":"2 39487   0.0133 247.1742 0001628  65.7612 329.6624  1.00272189 45765"},{"name":"GSAT-14","tle1":"1 39498U 14001A   26108.92197624 -.00000073  00000+0  00000+0 0  9995","tle2":"2 39498   0.0227 112.8359 0002598 207.4070 292.6980  1.00271031 44783"},{"name":"THAICOM 6","tle1":"1 39500U 14002A   26108.96641905 -.00000117  00000+0  00000+0 0  9999","tle2":"2 39500   0.0573 106.8592 0003551 335.4965 191.1496  1.00271661 44861"},{"name":"TDRS 12","tle1":"1 39504U 14004A   26108.92794343 -.00000266  00000+0  00000+0 0  9991","tle2":"2 39504   3.9205  18.0646 0002411 247.7883 234.3779  1.00271674 43688"},{"name":"ABS-2","tle1":"1 39508U 14006A   26108.92197624 -.00000082  00000+0  00000+0 0  9992","tle2":"2 39508   0.0286  97.8468 0003405 290.6118 225.4138  1.00271133 44689"},{"name":"ATHENA-FIDUS","tle1":"1 39509U 14006B   26108.93864123  .00000158  00000+0  00000+0 0  9992","tle2":"2 39509   0.0155 211.3755 0001284 183.4640 187.9121  1.00271393 44490"},{"name":"TURKSAT 4A","tle1":"1 39522U 14007A   26108.93308609  .00000150  00000+0  00000+0 0  9992","tle2":"2 39522   0.0387 299.6180 0003480  20.3995 264.9290  1.00272373 44374"},{"name":"EXPRESS-AT1","tle1":"1 39612U 14010A   26108.94735684  .00000072  00000+0  00000+0 0  9997","tle2":"2 39612   0.1045  82.1767 0001597  18.3989 144.7354  1.00286284 44225"},{"name":"EXPRESS-AT2","tle1":"1 39613U 14010B   26108.96481586  .00000082  00000+0  00000+0 0  9990","tle2":"2 39613   0.0089 208.1307 0000914 119.0440 283.2456  1.00276556 43903"},{"name":"AMAZONAS 4A","tle1":"1 39616U 14011A   26108.92135674 -.00000248  00000+0  00000+0 0  9999","tle2":"2 39616   0.0547 192.1012 0001981 213.5433  59.0883  1.00270460 44112"},{"name":"ASTRA 5B","tle1":"1 39617U 14011B   26108.90834069  .00000141  00000+0  00000+0 0  9993","tle2":"2 39617   0.0648 311.5626 0002883  51.0126 194.9431  1.00272250 44071"},{"name":"IRNSS-1B","tle1":"1 39635U 14017A   26108.94975405  .00000100  00000+0  00000+0 0  9998","tle2":"2 39635  29.0289 241.4183 0023177 181.4607 181.0271  1.00270389 44208"},{"name":"LUCH-5V","tle1":"1 39727U 14023A   26109.00423613 -.00000264  00000+0  00000+0 0  9996","tle2":"2 39727   4.9866  70.3210 0002043 331.6372 261.4077  1.00274662 43765"},{"name":"KAZSAT-3","tle1":"1 39728U 14023B   26108.94975405  .00000065  00000+0  00000+0 0  9998","tle2":"2 39728   0.0499  63.4632 0000258  14.2787 169.7373  1.00271220 41861"},{"name":"EUTELSAT 3B","tle1":"1 39773U 14030A   26108.93669679  .00000024  00000+0  00000+0 0  9993","tle2":"2 39773   0.0686   0.1643 0003878  24.5716 162.6214  1.00270438 43471"},{"name":"ASIASAT 8 (AMOS-7)","tle1":"1 40107U 14046A   26108.95445916 -.00000329  00000+0  00000+0 0  9990","tle2":"2 40107   0.0121 221.6117 0001295 174.5866 259.7919  1.00269701101552"},{"name":"ASIASAT 6","tle1":"1 40141U 14052A   26108.95981819 -.00000358  00000+0  00000+0 0  9994","tle2":"2 40141   0.0442  72.1904 0000796 277.4824 322.8487  1.00272454 42488"},{"name":"OPTUS 10","tle1":"1 40146U 14054A   26108.85976655 -.00000143  00000+0  00000+0 0  9994","tle2":"2 40146   0.0929 311.1833 0001860  75.2054 286.1117  1.00272752 42430"},{"name":"MEASAT-3B","tle1":"1 40147U 14054B   26108.96086667 -.00000238  00000+0  00000+0 0  9997","tle2":"2 40147   0.0666  60.0676 0003560 349.9165 234.5149  1.00270926 42317"},{"name":"HIMAWARI-8","tle1":"1 40267U 14060A   26108.93401928 -.00000271  00000+0  00000+0 0  9992","tle2":"2 40267   0.0273 101.4669 0000773 257.1893 325.2837  1.00273514 42168"},{"name":"IRNSS-1C","tle1":"1 40269U 14061A   26108.96641905 -.00000155  00000+0  00000+0 0  9990","tle2":"2 40269   6.3669  90.0580 0021410 357.2144 190.7597  1.00270876 42093"},{"name":"INTELSAT 30 (IS-30)","tle1":"1 40271U 14062A   26108.91719672 -.00000147  00000+0  00000+0 0  9997","tle2":"2 40271   0.0105 230.1904 0002271  34.1345 177.8624  1.00271591  6190"},{"name":"ARSAT 1","tle1":"1 40272U 14062B   26108.92179007 -.00000256  00000+0  00000+0 0  9992","tle2":"2 40272   0.0140 281.5714 0001641  91.6365  93.8661  1.00271640 42035"},{"name":"EUTELSAT 53A","tle1":"1 40277U 14064A   26108.73266479  .00000103  00000+0  00000+0 0  9998","tle2":"2 40277   0.0168 246.4947 0000417 176.7817 100.3328  1.00270427 40972"},{"name":"GSAT-16","tle1":"1 40332U 14078A   26108.96453969  .00000089  00000+0  00000+0 0  9995","tle2":"2 40332   0.0959  82.9026 0006460 349.9494 176.5293  1.00270912 41518"},{"name":"DIRECTV 14","tle1":"1 40333U 14078B   26108.91641671 -.00000121  00000+0  00000+0 0  9998","tle2":"2 40333   0.0102 250.4984 0000545 286.4638 260.7403  1.00270383 41440"},{"name":"YAMAL 401","tle1":"1 40345U 14082A   26108.85927876 -.00000224  00000+0  00000+0 0  9997","tle2":"2 40345   0.0122 185.0632 0000447 215.6136 205.5932  1.00271349 41320"},{"name":"ASTRA 2G","tle1":"1 40364U 14089A   26108.91170139  .00000154  00000+0  00000+0 0  9995","tle2":"2 40364   0.0552   6.3614 0004409  35.5175 161.5484  1.00272271 41370"},{"name":"FENGYUN 2G","tle1":"1 40367U 14090A   26108.88452324 -.00000297  00000+0  00000+0 0  9994","tle2":"2 40367   5.4883  73.5154 0003029 144.7827  46.8558  1.00275935 41409"},{"name":"MUOS-3","tle1":"1 40374U 15002A   26108.71897141 -.00000123  00000+0  00000+0 0  9996","tle2":"2 40374   4.4077  43.2297 0051113 181.9401 225.0049  1.00270767 40998"},{"name":"INMARSAT 5-F2","tle1":"1 40384U 15005A   26108.92517008  .00000000  00000+0  00000+0 0  9997","tle2":"2 40384   0.0102 232.0418 0001036 105.6233 147.4196  1.00269736 40408"},{"name":"ABS-3A","tle1":"1 40424U 15010A   26108.93548346 -.00000022  00000+0  00000+0 0  9993","tle2":"2 40424   0.0114 241.9940 0001488  95.6232 203.2277  1.00270540 40780"},{"name":"EUTELSAT 115 WEST B","tle1":"1 40425U 15010B   26108.91329670 -.00000021  00000+0  00000+0 0  9998","tle2":"2 40425   0.0130  89.4891 0000108 262.7842  68.6475  1.00270203 40791"},{"name":"EXPRESS-AM7","tle1":"1 40505U 15012A   26108.91683258  .00000000  00000+0  00000+0 0  9990","tle2":"2 40505   0.0169 244.6151 0002887 132.1058 200.3593  1.00269745 40415"},{"name":"BEIDOU-3S IGSO-1S","tle1":"1 40549U 15019A   26105.63855123 -.00000161  00000+0  00000+0 0  9992","tle2":"2 40549  49.3136 296.2132 0036841 190.1679  42.8253  1.00264313 40446"},{"name":"THOR 7","tle1":"1 40613U 15022A   26108.93591679 -.00000004  00000+0  00000+0 0  9993","tle2":"2 40613   0.0415  89.2244 0002502 292.8185 161.2731  1.00271254 40220"}]}